[{"OBJECT_NAME":"GHOST-1","OBJECT_ID":"2023-054T","EPOCH":"2026-03-09T17:24:48.864384","MEAN_MOTION":15.83170252,"ECCENTRICITY":0.00050061,"INCLINATION":97.3006,"RA_OF_ASC_NODE":345.7036,"ARG_OF_PERICENTER":67.0206,"MEAN_ANOMALY":293.1591,"EPHEMERIS_TYPE":0,"CLASSIFICATION_TYPE":"U","NORAD_CAT_ID":56195,"ELEMENT_SET_NO":999,"REV_AT_EPOCH":16365,"BSTAR":0.0007406482,"MEAN_MOTION_DOT":0.00161066,"MEAN_MOTION_DDOT":0},{"OBJECT_NAME":"STARLINK-36743","OBJECT_ID":"2026-034AC","EPOCH":"2026-03-09T21:38:34.404576","MEAN_MOTION":15.81023541,"ECCENTRICITY":0.00019938,"INCLINATION":53.1597,"RA_OF_ASC_NODE":210.061,"ARG_OF_PERICENTER":51.6212,"MEAN_ANOMALY":308.499,"EPHEMERIS_TYPE":0,"CLASSIFICATION_TYPE":"U","NORAD_CAT_ID":67876,"ELEMENT_SET_NO":999,"REV_AT_EPOCH":397,"BSTAR":0.0018143919,"MEAN_MOTION_DOT":0.00376035,"MEAN_MOTION_DDOT":0}]
